OBJECT_NAME,OBJECT_ID,EPOCH,MEAN_MOTION,ECCENTRICITY,INCLINATION,RA_OF_ASC_NODE,ARG_OF_PERICENTER,MEAN_ANOMALY,EPHEMERIS_TYPE,CLASSIFICATION_TYPE,NORAD_CAT_ID,ELEMENT_SET_NO,REV_AT_EPOCH,BSTAR,MEAN_MOTION_DOT,MEAN_MOTION_DDOT
STARLINK-31884,2024-084Y,2026-06-06T13:12:43.015104,15.27605146,.0002954,42.9919,259.9449,105.6359,254.4818,0,U,59676,999,11796,.14427E-3,.3713E-4,0
STARLINK-32108,2024-086A,2026-06-06T15:19:50.568672,15.27592955,.0001544,43.0027,281.1691,279.2362,80.8315,0,U,59682,999,11766,.8732E-4,.2142E-4,0
STARLINK-32080,2024-086B,2026-06-06T01:43:55.593408,15.27576398,.0000854,43.0031,284.6627,279.1740,80.9015,0,U,59683,999,11759,.20288E-4,.296E-5,0
STARLINK-32091,2024-086C,2026-06-06T13:56:48.577920,15.27587788,.0000432,43.0033,270.3883,231.9442,128.1371,0,U,59684,999,11780,.72759E-4,.1741E-4,0
STARLINK-32085,2024-086D,2026-06-06T15:02:03.996096,15.27583159,.0001029,43.0015,277.6491,272.5955,87.4779,0,U,59685,999,11771,.45761E-4,.998E-5,0
STARLINK-32100,2024-086E,2026-06-06T13:58:52.561056,15.27575279,.0001021,43.0004,259.7712,270.9657,89.1077,0,U,59686,999,11791,-.15794E-5,-.305E-5,0
STARLINK-32089,2024-086F,2026-06-06T14:39:51.022944,15.27602106,.0001886,42.9997,277.5364,278.0869,81.9768,0,U,59687,999,11771,.13488E-3,.3454E-4,0
STARLINK-32103,2024-086G,2026-06-06T14:40:05.399040,15.27590086,.0000944,43.0025,267.1525,273.1365,86.9378,0,U,59688,999,11783,.66355E-4,.1565E-4,0
STARLINK-32105,2024-086H,2026-06-06T14:30:36.205344,15.27591255,.000093,43.0016,277.4896,257.4778,102.5970,0,U,59689,999,11771,.83325E-4,.2032E-4,0
STARLINK-32106,2024-086J,2026-06-06T01:06:57.473856,15.27577497,.0000715,43.0028,273.2560,293.2268,66.8508,0,U,59690,999,11771,.28248E-4,.515E-5,0
STARLINK-32090,2024-086K,2026-06-05T02:06:01.251072,15.27574894,.00017267,43.0050,290.1964,277.7231,82.3425,0,U,59691,999,11743,-.13726134E-4,-.64E-5,0
STARLINK-32088,2024-086M,2026-06-06T13:51:16.888320,15.27594205,.0000876,43.0014,270.3592,275.5096,84.5656,0,U,59693,999,11779,.89747E-4,.2209E-4,0
STARLINK-32107,2024-086N,2026-06-06T15:27:57.845664,15.27587088,.00009147,43.0041,277.7839,284.9487,75.1264,0,U,59694,999,11771,.54753522E-4,.1245E-4,0
STARLINK-32104,2024-086P,2026-06-06T01:19:19.617024,15.27623455,.0000994,43.0033,277.5665,262.8703,97.2036,0,U,59695,999,11766,.24088E-3,.6381E-4,0
STARLINK-32094,2024-086Q,2026-06-06T01:26:06.059040,15.27586617,.0001819,43.0044,281.1331,263.5955,96.4690,0,U,59696,999,11762,.51668E-4,.116E-4,0
STARLINK-32099,2024-086R,2026-06-06T14:36:08.676864,15.27613651,.0001042,42.9964,277.5183,265.6755,94.3978,0,U,59697,999,11771,.79504E-5,-.43E-6,0
STARLINK-32096,2024-086S,2026-06-05T01:16:46.298496,15.27580319,.00009634,43.0014,286.4817,281.1742,78.9001,0,U,59698,999,11747,.46653763E-4,.1022E-4,0
STARLINK-32102,2024-086T,2026-06-06T14:45:24.878592,15.27609586,.000189,42.9971,277.5669,114.4090,245.6959,0,U,59699,999,11771,.10786E-2,.29566E-3,0
STARLINK-32092,2024-086U,2026-06-06T15:11:17.305152,15.27601962,.0001485,43.0031,277.6943,282.4197,77.6489,0,U,59700,999,11771,.95968E-4,.2381E-4,0
STARLINK-32093,2024-086V,2026-06-06T11:59:18.209184,15.27574180,.00020486,43.0046,278.4141,277.0776,82.9843,0,U,59701,999,11769,.4988076E-5,-.125E-5,0
STARLINK-32087,2024-086W,2026-06-06T16:25:06.541536,15.27592538,.00012622,43.0038,277.2231,262.3017,97.7691,0,U,59702,999,11772,.15281267E-3,.3947E-4,0
STARLINK-32086,2024-086X,2026-06-06T14:25:03.067680,15.27593747,.0001862,43.0038,277.4605,282.8954,77.1690,0,U,59703,999,11771,.1019E-3,.2544E-4,0
STARLINK-32098,2024-086Y,2026-06-06T15:22:26.139648,15.27595651,.0000531,42.9989,277.7525,272.2269,87.8521,0,U,59704,999,11771,.10477E-3,.2624E-4,0
STARLINK-11107 [DTC],2024-088A,2026-06-06T13:17:11.554080,15.69716800,.00009714,53.1581,247.9003,103.5722,256.5405,0,U,59708,999,12021,.10567699E-4,.692E-5,0
STARLINK-11088 [DTC],2024-088B,2026-06-06T13:03:12.641184,15.69746836,.00017098,53.1568,248.5505,27.4286,332.6822,0,U,59709,999,12022,.11373516E-3,.13232E-3,0
STARLINK-11092 [DTC],2024-088C,2026-06-06T12:56:10.371552,15.69696877,.00013948,53.1594,248.5178,47.5866,312.5270,0,U,59710,999,12022,-.12112236E-4,-.2055E-4,0
STARLINK-11082 [DTC],2024-088D,2026-06-06T12:49:05.998944,15.69694876,.00008773,53.1589,248.4936,126.6848,233.4251,0,U,59711,999,12022,.285437E-5,-.243E-5,0
STARLINK-11108 [DTC],2024-088E,2026-06-06T12:42:01.721376,15.69698412,.00009417,53.1569,248.4598,88.1356,271.9770,0,U,59712,999,12022,.8314459E-5,.419E-5,0
STARLINK-11100 [DTC],2024-088F,2026-06-06T12:34:58.247328,15.69696048,.00010762,53.1581,248.4240,83.1778,276.9362,0,U,59713,999,12022,.10713419E-4,.709E-5,0
STARLINK-11094 [DTC],2024-088G,2026-06-06T23:09:41.215968,15.69693641,.0000825,53.1557,246.2044,75.6730,284.4379,0,U,59714,999,12029,-.47092865E-4,-.6285E-4,0
