STARLINK-31884          
1 59676U 24084Y   26157.55049786  .00003713  00000+0  14427-3 0  9990
2 59676  42.9919 259.9449 0002954 105.6359 254.4818 15.27605146117963
STARLINK-32108          
1 59682U 24086A   26157.63877973  .00002142  00000+0  87320-4 0  9993
2 59682  43.0027 281.1691 0001544 279.2362  80.8315 15.27592955117667
STARLINK-32080          
1 59683U 24086B   26157.07217122  .00000296  00000+0  20288-4 0  9994
2 59683  43.0031 284.6627 0000854 279.1740  80.9015 15.27576398117595
STARLINK-32091          
1 59684U 24086C   26157.58111780  .00001741  00000+0  72759-4 0  9990
2 59684  43.0033 270.3883 0000432 231.9442 128.1371 15.27587788117800
STARLINK-32085          
1 59685U 24086D   26157.62643514  .00000998  00000+0  45761-4 0  9997
2 59685  43.0015 277.6491 0001029 272.5955  87.4779 15.27583159117716
STARLINK-32100          
1 59686U 24086E   26157.58255279 -.00000305  00000+0 -15794-5 0  9998
2 59686  43.0004 259.7712 0001021 270.9657  89.1077 15.27575279117911
STARLINK-32089          
1 59687U 24086F   26157.61100721  .00003454  00000+0  13488-3 0  9996
2 59687  42.9997 277.5364 0001886 278.0869  81.9768 15.27602106117710
STARLINK-32103          
1 59688U 24086G   26157.61117360  .00001565  00000+0  66355-4 0  9997
2 59688  43.0025 267.1525 0000944 273.1365  86.9378 15.27590086117838
STARLINK-32105          
1 59689U 24086H   26157.60458571  .00002032  00000+0  83325-4 0  9995
2 59689  43.0016 277.4896 0000930 257.4778 102.5970 15.27591255117711
STARLINK-32106          
1 59690U 24086J   26157.04649854  .00000515  00000+0  28248-4 0  9998
2 59690  43.0028 273.2560 0000715 293.2268  66.8508 15.27577497117712
STARLINK-32090          
1 59691U 24086K   26156.08751448 -.00000640  00000+0 -13726-4 0  9991
2 59691  43.0050 290.1964 0001726 277.7231  82.3425 15.27574894117432
STARLINK-32088          
1 59693U 24086M   26157.57727880  .00002209  00000+0  89747-4 0  9998
2 59693  43.0014 270.3592 0000876 275.5096  84.5656 15.27594205117798
STARLINK-32107          
1 59694U 24086N   26157.64441951  .00001245  00000+0  54754-4 0  9998
2 59694  43.0041 277.7839 0000914 284.9487  75.1264 15.27587088117719
STARLINK-32104          
1 59695U 24086P   26157.05508816  .00006381  00000+0  24088-3 0  9990
2 59695  43.0033 277.5665 0000994 262.8703  97.2036 15.27623455117665
STARLINK-32094          
1 59696U 24086Q   26157.05979235  .00001160  00000+0  51668-4 0  9993
2 59696  43.0044 281.1331 0001819 263.5955  96.4690 15.27586617117624
STARLINK-32099          
1 59697U 24086R   26157.60843376 -.00000043  00000+0  79504-5 0  9991
2 59697  42.9964 277.5183 0001042 265.6755  94.3978 15.27613651117712
STARLINK-32096          
1 59698U 24086S   26156.05331364  .00001022  00000+0  46654-4 0  9995
2 59698  43.0014 286.4817 0000963 281.1742  78.9001 15.27580319117476
STARLINK-32102          
1 59699U 24086T   26157.61487128  .00029566  00000+0  10786-2 0  9997
2 59699  42.9971 277.5669 0001890 114.4090 245.6959 15.27609586117717
STARLINK-32092          
1 59700U 24086U   26157.63283918  .00002381  00000+0  95968-4 0  9996
2 59700  43.0031 277.6943 0001485 282.4197  77.6489 15.27601962117710
STARLINK-32093          
1 59701U 24086V   26157.49951631 -.00000125  00000+0  49881-5 0  9994
2 59701  43.0046 278.4141 0002048 277.0776  82.9843 15.27574180117696
STARLINK-32087          
1 59702U 24086W   26157.68410349  .00003947  00000+0  15281-3 0  9991
2 59702  43.0038 277.2231 0001262 262.3017  97.7691 15.27592538117723
STARLINK-32086          
1 59703U 24086X   26157.60072995  .00002544  00000+0  10190-3 0  9991
2 59703  43.0038 277.4605 0001862 282.8954  77.1690 15.27593747117717
STARLINK-32098          
1 59704U 24086Y   26157.64058032  .00002624  00000+0  10477-3 0  9999
2 59704  42.9989 277.7525 0000531 272.2269  87.8521 15.27595651117716
STARLINK-11107 [DTC]    
1 59708U 24088A   26157.55360595  .00000692  00000+0  10568-4 0  9990
2 59708  53.1581 247.9003 0000971 103.5722 256.5405 15.69716800120212
STARLINK-11088 [DTC]    
1 59709U 24088B   26157.54389631  .00013232  00000+0  11374-3 0  9991
2 59709  53.1568 248.5505 0001709  27.4286 332.6822 15.69746836120223
STARLINK-11092 [DTC]    
1 59710U 24088C   26157.53900893 -.00002055  00000+0 -12112-4 0  9996
2 59710  53.1594 248.5178 0001394  47.5866 312.5270 15.69696877120220
STARLINK-11082 [DTC]    
1 59711U 24088D   26157.53409721 -.00000243  00000+0  28544-5 0  9994
2 59711  53.1589 248.4936 0000877 126.6848 233.4251 15.69694876120227
STARLINK-11108 [DTC]    
1 59712U 24088E   26157.52918659  .00000419  00000+0  83145-5 0  9991
2 59712  53.1569 248.4598 0000941  88.1356 271.9770 15.69698412120221
STARLINK-11100 [DTC]    
1 59713U 24088F   26157.52428527  .00000709  00000+0  10713-4 0  9994
2 59713  53.1581 248.4240 0001076  83.1778 276.9362 15.69696048120228
STARLINK-11094 [DTC]    
1 59714U 24088G   26157.96506037 -.00006285  00000+0 -47093-4 0  9994
2 59714  53.1557 246.2044 0000825  75.6730 284.4379 15.69693641120290
